OBJECT_NAME,OBJECT_ID,EPOCH,MEAN_MOTION,ECCENTRICITY,INCLINATION,RA_OF_ASC_NODE,ARG_OF_PERICENTER,MEAN_ANOMALY,EPHEMERIS_TYPE,CLASSIFICATION_TYPE,NORAD_CAT_ID,ELEMENT_SET_NO,REV_AT_EPOCH,BSTAR,MEAN_MOTION_DOT,MEAN_MOTION_DDOT
SL-14 R/B,1990-018B,2026-06-05T16:04:45.878880,14.82208520,.0016775,82.5202,140.8726,157.3822,202.8136,0,U,20511,999,93561,.47809E-4,.406E-5,0
HST,1990-037B,2026-06-05T08:12:51.453216,15.30618516,.0001846,28.4714,161.5211,24.4267,335.6416,0,U,20580,999,78675,.1653E-3,.5266E-4,0
SL-16 R/B,1990-046B,2026-06-05T15:18:04.676832,14.15019866,.001418,70.9977,113.2042,179.3303,180.7841,0,U,20625,999,86083,.13348E-3,.211E-5,0
COSMOS 2084,1990-055A,2026-06-05T09:01:23.025216,15.06066013,.000557,62.7909,36.4030,257.5240,102.5238,0,U,20663,999,94952,.15651E-3,.2096E-4,0
SL-6 R/B(2),1990-055D,2026-06-05T19:30:29.260224,15.03965061,.0038724,62.7841,314.0810,3.5052,356.6311,0,U,20666,999,95144,.16923E-3,.2179E-4,0
SL-8 R/B,1990-078B,2026-06-05T11:01:38.405856,14.91883190,.0353184,82.9014,172.2366,77.9086,286.1469,0,U,20775,999,82237,.49268E-3,.17486E-3,0
SL-8 R/B,1991-006B,2026-06-05T14:37:23.989152,13.77505074,.0023132,82.9416,104.6463,145.5688,27.0376,0,U,21088,999,77617,.37954E-4,.53E-6,0
OKEAN-3,1991-039A,2026-06-05T12:08:14.529408,15.05275848,.0014712,82.5169,251.7086,37.6890,322.5365,0,U,21397,999,87824,.17321E-3,.2509E-4,0
COSMOS 2151,1991-042A,2026-06-05T18:56:23.849088,15.00406473,.0013641,82.4962,358.6817,118.1840,242.0764,0,U,21422,999,87640,.13514E-3,.1728E-4,0
SL-14 R/B,1991-042B,2026-06-05T16:10:42.172608,14.81894929,.0015856,82.4918,137.6921,316.0792,43.9161,0,U,21423,999,86610,.50375E-4,.422E-5,0
ERS-1,1991-050A,2026-06-05T11:42:02.644704,14.39509691,.0030864,98.7801,176.8995,303.0379,56.7844,0,U,21574,999,82836,.99737E-4,.266E-5,0
ARIANE 40 R/B,1991-050F,2026-06-05T09:35:10.716576,14.42949895,.00037,98.1880,205.2747,147.6026,212.5392,0,U,21610,999,83164,.10569E-3,.312E-5,0
INTERCOSMOS 25,1991-086A,2026-06-05T13:22:09.240960,12.12181566,.1484476,82.6055,256.8474,287.5043,56.9522,0,U,21819,999,50733,.16328E-3,.821E-5,0
SL-8 R/B,1992-008B,2026-06-05T12:02:14.302752,13.75973742,.0033279,82.9270,202.4756,248.3903,224.1561,0,U,21876,999,72149,.23259E-4,.38E-6,0
SL-8 R/B,1992-020B,2026-06-05T14:00:42.112800,13.75547734,.0030335,82.9302,88.4754,53.9941,118.8105,0,U,21938,999,71321,.56056E-4,.7E-6,0
USA 81,1992-023A,2026-06-05T19:38:30.884928,14.32395106,.0002729,85.0076,80.5683,95.1529,264.9975,0,U,21949,999,10740,.69526E-4,.208E-5,0
COSMOS 2219,1992-076A,2026-06-05T10:45:20.858112,14.14095701,.0016048,71.0581,194.6129,63.3408,296.9356,0,U,22219,999,73078,-.40558E-4,-.124E-5,0
SL-16 R/B,1992-076B,2026-06-05T07:59:00.894336,14.16872694,.0014336,71.0010,3.7544,314.2898,220.0721,0,U,22220,999,73424,-.4887E-4,-.146E-5,0
COSMOS 2221,1992-080A,2026-06-05T12:06:50.901984,14.96503646,.0012607,82.5037,194.9568,255.4528,104.5296,0,U,22236,999,79392,.13161E-3,.1522E-4,0
SL-16 R/B,1992-093B,2026-06-05T12:16:18.365088,14.15464970,.0004582,71.0203,179.9023,203.9491,156.1420,0,U,22285,999,72558,.20745E-4,-.7E-7,0
COSMOS 2228,1992-094A,2026-06-05T19:05:46.273344,14.97544746,.0018056,82.5169,152.9542,11.2913,348.8711,0,U,22286,999,78924,.23152E-3,.2735E-4,0
SL-16 R/B,1993-016B,2026-06-05T08:22:15.463776,14.15308495,.0010973,71.0081,31.0728,200.9257,159.1418,0,U,22566,999,71457,-.18142E-5,-.51E-6,0
COSMOS 2242,1993-024A,2026-06-05T11:34:52.881600,14.96868319,.0016517,82.5182,182.7407,16.0786,344.0957,0,U,22626,999,79352,.153E-3,.1785E-4,0
SL-16 R/B,1993-059B,2026-06-05T11:47:23.345088,14.17243439,.0014921,70.9885,185.9686,74.3810,285.8960,0,U,22803,999,69197,.29793E-4,.12E-6,0
ARIANE 40 R/B,1993-061H,2026-06-05T11:22:54.940800,14.32902762,.0011199,98.4821,223.5742,30.6064,329.5771,0,U,22830,999,70667,.95428E-4,.218E-5,0
COSMOS 2278,1994-023A,2026-06-05T12:09:58.357152,14.14390708,.0010648,71.0539,351.3647,256.3727,103.6210,0,U,23087,999,65722,.22668E-3,.387E-5,0
SL-16 R/B,1994-023B,2026-06-05T12:19:59.467872,14.15018485,.0003522,70.9998,246.4463,199.9747,160.1238,0,U,23088,999,65851,.61478E-4,.71E-6,0
SL-16 R/B,1994-074B,2026-06-05T02:38:19.260096,14.79491724,.0005279,97.6995,183.3338,304.0059,123.0223,0,U,23343,999,70017,.67173E-4,.453E-5,0
SL-16 R/B,1994-077B,2026-06-05T11:04:07.510656,14.15574705,.0002508,70.9808,167.8323,334.7270,25.3730,0,U,23405,999,62865,-.12218E-3,-.287E-5,0
ARIANE 40+ R/B,1995-021B,2026-06-05T10:32:36.283776,14.39826707,.0005777,98.4412,226.6834,232.0914,138.6075,0,U,23561,999,63187,.10296E-3,.28E-5,0
SL-16 R/B,1995-058B,2026-06-05T06:15:00.689760,14.15505739,.0013239,71.0218,356.4006,336.4878,23.5638,0,U,23705,999,58024,-.87119E-4,-.218E-5,0
